ONEWEB-0403             
1 50483U 21132Q   26136.09846327 -.00000052  00000+0 -16553-3 0  9997
2 50483  87.9176 341.8403 0001910  90.7162 269.4189 13.18686874217369
ONEWEB-0404             
1 50484U 21132R   26136.21056497  .00000332  00000+0  90101-3 0  9993
2 50484  87.8920  27.4272 0001957  89.4659 270.6693 13.11417727211500
ONEWEB-0405             
1 50485U 21132S   26136.26369308  .00000076  00000+0  15999-3 0  9994
2 50485  87.9185 341.7907 0001364  90.7771 269.3518 13.18685038217780
ONEWEB-0406             
1 50486U 21132T   26136.17940838 -.00000024  00000+0 -93470-4 0  9994
2 50486  87.9167 341.8273 0002223  98.9818 261.1566 13.18687262217408
ONEWEB-0407             
1 50487U 21132U   26136.09676571 -.00000573  00000+0 -14851-2 0  9999
2 50487  87.9175 341.8333 0001737  78.8846 281.2481 13.18689705217337
ONEWEB-0409             
1 50488U 21132V   26136.13257260  .00000268  00000+0  71955-3 0  9993
2 50488  87.8924  27.4295 0001795  89.5338 270.5996 13.11418737211381
ONEWEB-0412             
1 50489U 21132W   26136.08497937  .00000032  00000+0  48671-4 0  9994
2 50489  87.9172 341.8448 0002079  81.1890 278.9478 13.18686894217424
ONEWEB-0413             
1 50490U 21132X   26136.09003563  .00000071  00000+0  14709-3 0  9992
2 50490  87.9166 341.8457 0001957  79.3235 280.8118 13.18686483217365
ONEWEB-0414             
1 50491U 21132Y   26136.07485109  .00000067  00000+0  13785-3 0  9999
2 50491  87.9174 341.8268 0002056  86.1661 273.9707 13.18686957217391
ONEWEB-0417             
1 50492U 21132Z   26136.08329403  .00000018  00000+0  13407-4 0  9993
2 50492  87.9169 341.8475 0001929  94.8830 265.2522 13.18687417217377
ONEWEB-0418             
1 50493U 21132AA  26136.09325272  .00000031  00000+0  46094-4 0  9998
2 50493  87.9177 341.8425 0001926  96.4144 263.7207 13.18685109217431
ONEWEB-0419             
1 50494U 21132AB  26136.11134415  .00000081  00000+0  17248-3 0  9992
2 50494  87.9177 341.8386 0001755  94.6164 265.5169 13.18664454217358
ONEWEB-0420             
1 50495U 21132AC  26136.07653399  .00000003  00000+0 -24349-4 0  9991
2 50495  87.9165 341.8510 0001765  81.3634 278.7698 13.18687298217344
ONEWEB-0421             
1 50496U 21132AD  26136.06978931  .00000091  00000+0  19793-3 0  9995
2 50496  87.9170 341.8488 0002257  86.4917 273.6473 13.18684884217389
ONEWEB-0424             
1 50497U 21132AE  26136.25865789 -.00000031  00000+0 -11060-3 0  9998
2 50497  87.9175 341.8082 0001574  94.8510 265.2802 13.18687249217435
ONEWEB-0426             
1 50498U 21132AF  26136.29323281 -.00006014  00000+0 -15289-1 0  9991
2 50498  87.9178 341.7883 0002126 123.2745 236.8591 13.18715980217385
