[{"OBJECT_NAME":"ONEWEB-0403","OBJECT_ID":"2021-132Q","EPOCH":"2026-05-16T02:21:47.226528","MEAN_MOTION":13.18686874,"ECCENTRICITY":0.000191,"INCLINATION":87.9176,"RA_OF_ASC_NODE":341.8403,"ARG_OF_PERICENTER":90.7162,"MEAN_ANOMALY":269.4189,"EPHEMERIS_TYPE":0,"CLASSIFICATION_TYPE":"U","NORAD_CAT_ID":50483,"ELEMENT_SET_NO":999,"REV_AT_EPOCH":21736,"BSTAR":-0.00016553000000000002,"MEAN_MOTION_DOT":-5.2e-07,"MEAN_MOTION_DDOT":0.0},{"OBJECT_NAME":"ONEWEB-0404","OBJECT_ID":"2021-132R","EPOCH":"2026-05-16T05:03:12.813408","MEAN_MOTION":13.11417727,"ECCENTRICITY":0.0001957,"INCLINATION":87.892,"RA_OF_ASC_NODE":27.4272,"ARG_OF_PERICENTER":89.4659,"MEAN_ANOMALY":270.6693,"EPHEMERIS_TYPE":0,"CLASSIFICATION_TYPE":"U","NORAD_CAT_ID":50484,"ELEMENT_SET_NO":999,"REV_AT_EPOCH":21150,"BSTAR":0.00090101,"MEAN_MOTION_DOT":3.32e-06,"MEAN_MOTION_DDOT":0.0},{"OBJECT_NAME":"ONEWEB-0405","OBJECT_ID":"2021-132S","EPOCH":"2026-05-16T06:19:43.082112","MEAN_MOTION":13.18685038,"ECCENTRICITY":0.0001364,"INCLINATION":87.9185,"RA_OF_ASC_NODE":341.7907,"ARG_OF_PERICENTER":90.7771,"MEAN_ANOMALY":269.3518,"EPHEMERIS_TYPE":0,"CLASSIFICATION_TYPE":"U","NORAD_CAT_ID":50485,"ELEMENT_SET_NO":999,"REV_AT_EPOCH":21778,"BSTAR":0.00015999,"MEAN_MOTION_DOT":7.6e-07,"MEAN_MOTION_DDOT":0.0},{"OBJECT_NAME":"ONEWEB-0406","OBJECT_ID":"2021-132T","EPOCH":"2026-05-16T04:18:20.884032","MEAN_MOTION":13.18687262,"ECCENTRICITY":0.0002223,"INCLINATION":87.9167,"RA_OF_ASC_NODE":341.8273,"ARG_OF_PERICENTER":98.9818,"MEAN_ANOMALY":261.1566,"EPHEMERIS_TYPE":0,"CLASSIFICATION_TYPE":"U","NORAD_CAT_ID":50486,"ELEMENT_SET_NO":999,"REV_AT_EPOCH":21740,"BSTAR":-9.347e-05,"MEAN_MOTION_DOT":-2.4e-07,"MEAN_MOTION_DDOT":0.0},{"OBJECT_NAME":"ONEWEB-0407","OBJECT_ID":"2021-132U","EPOCH":"2026-05-16T02:19:20.557344","MEAN_MOTION":13.18689705,"ECCENTRICITY":0.0001737,"INCLINATION":87.9175,"RA_OF_ASC_NODE":341.8333,"ARG_OF_PERICENTER":78.8846,"MEAN_ANOMALY":281.2481,"EPHEMERIS_TYPE":0,"CLASSIFICATION_TYPE":"U","NORAD_CAT_ID":50487,"ELEMENT_SET_NO":999,"REV_AT_EPOCH":21733,"BSTAR":-0.0014851,"MEAN_MOTION_DOT":-5.73e-06,"MEAN_MOTION_DDOT":0.0},{"OBJECT_NAME":"ONEWEB-0409","OBJECT_ID":"2021-132V","EPOCH":"2026-05-16T03:10:54.272640","MEAN_MOTION":13.11418737,"ECCENTRICITY":0.0001795,"INCLINATION":87.8924,"RA_OF_ASC_NODE":27.4295,"ARG_OF_PERICENTER":89.5338,"MEAN_ANOMALY":270.5996,"EPHEMERIS_TYPE":0,"CLASSIFICATION_TYPE":"U","NORAD_CAT_ID":50488,"ELEMENT_SET_NO":999,"REV_AT_EPOCH":21138,"BSTAR":0.00071955,"MEAN_MOTION_DOT":2.68e-06,"MEAN_MOTION_DDOT":0.0},{"OBJECT_NAME":"ONEWEB-0412","OBJECT_ID":"2021-132W","EPOCH":"2026-05-16T02:02:22.217568","MEAN_MOTION":13.18686894,"ECCENTRICITY":0.0002079,"INCLINATION":87.9172,"RA_OF_ASC_NODE":341.8448,"ARG_OF_PERICENTER":81.189,"MEAN_ANOMALY":278.9478,"EPHEMERIS_TYPE":0,"CLASSIFICATION_TYPE":"U","NORAD_CAT_ID":50489,"ELEMENT_SET_NO":999,"REV_AT_EPOCH":21742,"BSTAR":4.8671e-05,"MEAN_MOTION_DOT":3.2e-07,"MEAN_MOTION_DDOT":0.0},{"OBJECT_NAME":"ONEWEB-0413","OBJECT_ID":"2021-132X","EPOCH":"2026-05-16T02:09:39.078432","MEAN_MOTION":13.18686483,"ECCENTRICITY":0.0001957,"INCLINATION":87.9166,"RA_OF_ASC_NODE":341.8457,"ARG_OF_PERICENTER":79.3235,"MEAN_ANOMALY":280.8118,"EPHEMERIS_TYPE":0,"CLASSIFICATION_TYPE":"U","NORAD_CAT_ID":50490,"ELEMENT_SET_NO":999,"REV_AT_EPOCH":21736,"BSTAR":0.00014709,"MEAN_MOTION_DOT":7.1e-07,"MEAN_MOTION_DDOT":0.0},{"OBJECT_NAME":"ONEWEB-0414","OBJECT_ID":"2021-132Y","EPOCH":"2026-05-16T01:47:47.134176","MEAN_MOTION":13.18686957,"ECCENTRICITY":0.0002056,"INCLINATION":87.9174,"RA_OF_ASC_NODE":341.8268,"ARG_OF_PERICENTER":86.1661,"MEAN_ANOMALY":273.9707,"EPHEMERIS_TYPE":0,"CLASSIFICATION_TYPE":"U","NORAD_CAT_ID":50491,"ELEMENT_SET_NO":999,"REV_AT_EPOCH":21739,"BSTAR":0.00013785,"MEAN_MOTION_DOT":6.7e-07,"MEAN_MOTION_DDOT":0.0},{"OBJECT_NAME":"ONEWEB-0417","OBJECT_ID":"2021-132Z","EPOCH":"2026-05-16T01:59:56.604192","MEAN_MOTION":13.18687417,"ECCENTRICITY":0.0001929,"INCLINATION":87.9169,"RA_OF_ASC_NODE":341.8475,"ARG_OF_PERICENTER":94.883,"MEAN_ANOMALY":265.2522,"EPHEMERIS_TYPE":0,"CLASSIFICATION_TYPE":"U","NORAD_CAT_ID":50492,"ELEMENT_SET_NO":999,"REV_AT_EPOCH":21737,"BSTAR":1.3407e-05,"MEAN_MOTION_DOT":1.8e-07,"MEAN_MOTION_DDOT":0.0},{"OBJECT_NAME":"ONEWEB-0418","OBJECT_ID":"2021-132AA","EPOCH":"2026-05-16T02:14:17.035008","MEAN_MOTION":13.18685109,"ECCENTRICITY":0.0001926,"INCLINATION":87.9177,"RA_OF_ASC_NODE":341.8425,"ARG_OF_PERICENTER":96.4144,"MEAN_ANOMALY":263.7207,"EPHEMERIS_TYPE":0,"CLASSIFICATION_TYPE":"U","NORAD_CAT_ID":50493,"ELEMENT_SET_NO":999,"REV_AT_EPOCH":21743,"BSTAR":4.6094e-05,"MEAN_MOTION_DOT":3.1e-07,"MEAN_MOTION_DDOT":0.0},{"OBJECT_NAME":"ONEWEB-0419","OBJECT_ID":"2021-132AB","EPOCH":"2026-05-16T02:40:20.134560","MEAN_MOTION":13.18664454,"ECCENTRICITY":0.0001755,"INCLINATION":87.9177,"RA_OF_ASC_NODE":341.8386,"ARG_OF_PERICENTER":94.6164,"MEAN_ANOMALY":265.5169,"EPHEMERIS_TYPE":0,"CLASSIFICATION_TYPE":"U","NORAD_CAT_ID":50494,"ELEMENT_SET_NO":999,"REV_AT_EPOCH":21735,"BSTAR":0.00017248,"MEAN_MOTION_DOT":8.1e-07,"MEAN_MOTION_DDOT":0.0},{"OBJECT_NAME":"ONEWEB-0420","OBJECT_ID":"2021-132AC","EPOCH":"2026-05-16T01:50:12.536736","MEAN_MOTION":13.18687298,"ECCENTRICITY":0.0001765,"INCLINATION":87.9165,"RA_OF_ASC_NODE":341.851,"ARG_OF_PERICENTER":81.3634,"MEAN_ANOMALY":278.7698,"EPHEMERIS_TYPE":0,"CLASSIFICATION_TYPE":"U","NORAD_CAT_ID":50495,"ELEMENT_SET_NO":999,"REV_AT_EPOCH":21734,"BSTAR":-2.4349000000000004e-05,"MEAN_MOTION_DOT":3e-08,"MEAN_MOTION_DDOT":0.0},{"OBJECT_NAME":"ONEWEB-0421","OBJECT_ID":"2021-132AD","EPOCH":"2026-05-16T01:40:29.796384","MEAN_MOTION":13.18684884,"ECCENTRICITY":0.0002257,"INCLINATION":87.917,"RA_OF_ASC_NODE":341.8488,"ARG_OF_PERICENTER":86.4917,"MEAN_ANOMALY":273.6473,"EPHEMERIS_TYPE":0,"CLASSIFICATION_TYPE":"U","NORAD_CAT_ID":50496,"ELEMENT_SET_NO":999,"REV_AT_EPOCH":21738,"BSTAR":0.00019793,"MEAN_MOTION_DOT":9.1e-07,"MEAN_MOTION_DDOT":0.0},{"OBJECT_NAME":"ONEWEB-0424","OBJECT_ID":"2021-132AE","EPOCH":"2026-05-16T06:12:28.041696","MEAN_MOTION":13.18687249,"ECCENTRICITY":0.0001574,"INCLINATION":87.9175,"RA_OF_ASC_NODE":341.8082,"ARG_OF_PERICENTER":94.851,"MEAN_ANOMALY":265.2802,"EPHEMERIS_TYPE":0,"CLASSIFICATION_TYPE":"U","NORAD_CAT_ID":50497,"ELEMENT_SET_NO":999,"REV_AT_EPOCH":21743,"BSTAR":-0.0001106,"MEAN_MOTION_DOT":-3.1e-07,"MEAN_MOTION_DDOT":0.0},{"OBJECT_NAME":"ONEWEB-0426","OBJECT_ID":"2021-132AF","EPOCH":"2026-05-16T07:02:15.314784","MEAN_MOTION":13.1871598,"ECCENTRICITY":0.0002126,"INCLINATION":87.9178,"RA_OF_ASC_NODE":341.7883,"ARG_OF_PERICENTER":123.2745,"MEAN_ANOMALY":236.8591,"EPHEMERIS_TYPE":0,"CLASSIFICATION_TYPE":"U","NORAD_CAT_ID":50498,"ELEMENT_SET_NO":999,"REV_AT_EPOCH":21738,"BSTAR":-0.015289,"MEAN_MOTION_DOT":-6.014e-05,"MEAN_MOTION_DDOT":0.0}]